{
  "type": "FeatureCollection",
  "features": [
    {
      "type": "Feature",
      "properties": {
        "norad_id": 53093,
        "name": "COSMOS 2251 DEB",
        "group": "cosmos-2251-debris",
        "lat": -13.988419955476061,
        "lon": 99.31159277163285,
        "alt_km": 769.2454137484701,
        "timestamp": "2025-12-26T21:25:53.408091+00:00",
        "meta_object_name": "COSMOS 2251 DEB",
        "meta_object_id": "1993-036BYP",
        "meta_epoch": "2025-12-26T03:52:52.574304",
        "meta_mean_motion": 14.41952371,
        "meta_eccentricity": 0.00199479,
        "meta_inclination": 74.0364,
        "meta_ra_of_asc_node": 276.5774,
        "meta_arg_of_pericenter": 351.6566,
        "meta_mean_anomaly": 8.4255,
        "meta_ephemeris_type": 0,
        "meta_classification_type": "U",
        "meta_norad_cat_id": 53093,
        "meta_element_set_no": 999,
        "meta_rev_at_epoch": 17919,
        "meta_bstar": 0.00083955612,
        "meta_mean_motion_dot": 2.732e-05,
        "meta_mean_motion_ddot": 0,
        "tle_line1": "1 53093U 93036BYP 25360.16171961  .00002732  00000+0  83956-3 0  9996",
        "tle_line2": "2 53093  74.0364 276.5774 0019947 351.6566   8.4255 14.41952371179194"
      },
      "geometry": {
        "type": "Point",
        "coordinates": [
          99.31159277163285,
          -13.988419955476061
        ]
      }
    }
  ]
}